[
    {
        "Altitude(m)": 707248.1832000418,
        "Argument of Periapsis(deg)": 0.007973084830638947,
        "Eccentricity": 0.0,
        "Inclination(deg)": 45.0,
        "Latitude(deg)": -17.29598773715618,
        "Longitude(deg)": -173.57463004461826,
        "Mean Anomaly(deg)": -24.65404834676343,
        "RAAN(deg)": 304.99247364097926,
        "Satellite Name": "Constellation 1 1362",
        "Satellite Number": 1362,
        "Semi-Major Axis(m)": 7083131.272910544,
        "Time(s)": 133
    },
    {
        "Altitude(m)": 707235.7083234127,
        "Argument of Periapsis(deg)": 0.008033032836884352,
        "Eccentricity": 0.0,
        "Inclination(deg)": 45.0,
        "Latitude(deg)": -17.25496246862261,
        "Longitude(deg)": -173.53180487521396,
        "Mean Anomaly(deg)": -24.593347206513492,
        "RAAN(deg)": 304.99241705181373,
        "Satellite Name": "Constellation 1 1362",
        "Satellite Number": 1362,
        "Semi-Major Axis(m)": 7083131.272910544,
        "Time(s)": 134
    },
    {
        "Altitude(m)": 707223.2443578317,
        "Argument of Periapsis(deg)": 0.008092980843129758,
        "Eccentricity": 0.0,
        "Inclination(deg)": 45.0,
        "Latitude(deg)": -17.213925988309988,
        "Longitude(deg)": -173.48900033071413,
        "Mean Anomaly(deg)": -24.532646066263656,
        "RAAN(deg)": 304.99236046264815,
        "Satellite Name": "Constellation 1 1362",
        "Satellite Number": 1362,
        "Semi-Major Axis(m)": 7083131.272910544,
        "Time(s)": 135
    },
    {
        "Altitude(m)": 707210.7913423426,
        "Argument of Periapsis(deg)": 0.008152928849375162,
        "Eccentricity": 0.0,
        "Inclination(deg)": 45.0,
        "Latitude(deg)": -17.172878328866954,
        "Longitude(deg)": -173.4462163552972,
        "Mean Anomaly(deg)": -24.47194492601372,
        "RAAN(deg)": 304.9923038734825,
        "Satellite Name": "Constellation 1 1362",
        "Satellite Number": 1362,
        "Semi-Major Axis(m)": 7083131.272910544,
        "Time(s)": 136
    },
    {
        "Altitude(m)": 707198.3493159413,
        "Argument of Periapsis(deg)": 0.008212876855620568,
        "Eccentricity": 0.0,
        "Inclination(deg)": 45.0,
        "Latitude(deg)": -17.13181952290225,
        "Longitude(deg)": -173.40345289317167,
        "Mean Anomaly(deg)": -24.41124378576378,
        "RAAN(deg)": 304.992247284317,
        "Satellite Name": "Constellation 1 1362",
        "Satellite Number": 1362,
        "Semi-Major Axis(m)": 7083131.272910544,
        "Time(s)": 137
    },
    {
        "Altitude(m)": 707185.9183175582,
        "Argument of Periapsis(deg)": 0.008272824861865974,
        "Eccentricity": 0.0,
        "Inclination(deg)": 45.0,
        "Latitude(deg)": -17.09074960298497,
        "Longitude(deg)": -173.3607098885767,
        "Mean Anomaly(deg)": -24.350542645513947,
        "RAAN(deg)": 304.9921906951514,
        "Satellite Name": "Constellation 1 1362",
        "Satellite Number": 1362,
        "Semi-Major Axis(m)": 7083131.272910544,
        "Time(s)": 138
    },
    {
        "Altitude(m)": 707173.4983860728,
        "Argument of Periapsis(deg)": 0.00833277286811138,
        "Eccentricity": 0.0,
        "Inclination(deg)": 45.0,
        "Latitude(deg)": -17.04966860164423,
        "Longitude(deg)": -173.3179872857813,
        "Mean Anomaly(deg)": -24.28984150526406,
        "RAAN(deg)": 304.9921341059859,
        "Satellite Name": "Constellation 1 1362",
        "Satellite Number": 1362,
        "Semi-Major Axis(m)": 7083131.272910544,
        "Time(s)": 139
    },
    {
        "Altitude(m)": 707161.089560307,
        "Argument of Periapsis(deg)": 0.008392720874356788,
        "Eccentricity": 0.0,
        "Inclination(deg)": 45.0,
        "Latitude(deg)": -17.008576551369558,
        "Longitude(deg)": -173.27528502908453,
        "Mean Anomaly(deg)": -24.22914036501412,
        "RAAN(deg)": 304.9920775168203,
        "Satellite Name": "Constellation 1 1362",
        "Satellite Number": 1362,
        "Semi-Major Axis(m)": 7083131.272910544,
        "Time(s)": 140
    },
    {
        "Altitude(m)": 707148.6918790216,
        "Argument of Periapsis(deg)": 0.008452668880602192,
        "Eccentricity": 0.0,
        "Inclination(deg)": 45.0,
        "Latitude(deg)": -16.967473484610824,
        "Longitude(deg)": -173.23260323091304,
        "Mean Anomaly(deg)": -24.168439224764185,
        "RAAN(deg)": 304.9920209276548,
        "Satellite Name": "Constellation 1 1362",
        "Satellite Number": 1362,
        "Semi-Major Axis(m)": 7083131.272910544,
        "Time(s)": 141
    },
    {
        "Altitude(m)": 707136.3053809135,
        "Argument of Periapsis(deg)": 0.008512616886847598,
        "Eccentricity": 0.0,
        "Inclination(deg)": 45.0,
        "Latitude(deg)": -16.926359433779492,
        "Longitude(deg)": -173.1899414994326,
        "Mean Anomaly(deg)": -24.1077380845144,
        "RAAN(deg)": 304.99196433848914,
        "Satellite Name": "Constellation 1 1362",
        "Satellite Number": 1362,
        "Semi-Major Axis(m)": 7083131.272910544,
        "Time(s)": 142
    },
    {
        "Altitude(m)": 707123.9301046354,
        "Argument of Periapsis(deg)": 0.008572564893093004,
        "Eccentricity": 0.0,
        "Inclination(deg)": 45.0,
        "Latitude(deg)": -16.88523443124646,
        "Longitude(deg)": -173.14729994712974,
        "Mean Anomaly(deg)": -24.04703694426441,
        "RAAN(deg)": 304.99190774932356,
        "Satellite Name": "Constellation 1 1362",
        "Satellite Number": 1362,
        "Semi-Major Axis(m)": 7083131.272910544,
        "Time(s)": 143
    },
    {
        "Altitude(m)": 707111.566088775,
        "Argument of Periapsis(deg)": 0.008632512899338408,
        "Eccentricity": 0.0,
        "Inclination(deg)": 45.0,
        "Latitude(deg)": -16.84409850934412,
        "Longitude(deg)": -173.10467851842478,
        "Mean Anomaly(deg)": -23.986335804014473,
        "RAAN(deg)": 304.99185116015803,
        "Satellite Name": "Constellation 1 1362",
        "Satellite Number": 1362,
        "Semi-Major Axis(m)": 7083131.272910544,
        "Time(s)": 144
    },
    {
        "Altitude(m)": 707099.2133718592,
        "Argument of Periapsis(deg)": 0.008692460905583814,
        "Eccentricity": 0.0,
        "Inclination(deg)": 45.0,
        "Latitude(deg)": -16.802951700365767,
        "Longitude(deg)": -173.062077157768,
        "Mean Anomaly(deg)": -23.92563466376464,
        "RAAN(deg)": 304.99179457099245,
        "Satellite Name": "Constellation 1 1362",
        "Satellite Number": 1362,
        "Semi-Major Axis(m)": 7083131.272910544,
        "Time(s)": 145
    },
    {
        "Altitude(m)": 707086.8719923594,
        "Argument of Periapsis(deg)": 0.00875240891182922,
        "Eccentricity": 0.0,
        "Inclination(deg)": 45.0,
        "Latitude(deg)": -16.761794036565625,
        "Longitude(deg)": -173.0194958096399,
        "Mean Anomaly(deg)": -23.864933523514754,
        "RAAN(deg)": 304.9917379818269,
        "Satellite Name": "Constellation 1 1362",
        "Satellite Number": 1362,
        "Semi-Major Axis(m)": 7083131.272910544,
        "Time(s)": 146
    },
    {
        "Altitude(m)": 707074.5419886898,
        "Argument of Periapsis(deg)": 0.008812356918074627,
        "Eccentricity": 0.0,
        "Inclination(deg)": 45.0,
        "Latitude(deg)": -16.720625550159138,
        "Longitude(deg)": -172.97693441855125,
        "Mean Anomaly(deg)": -23.804232383264864,
        "RAAN(deg)": 304.9916813926613,
        "Satellite Name": "Constellation 1 1362",
        "Satellite Number": 1362,
        "Semi-Major Axis(m)": 7083131.272910544,
        "Time(s)": 147
    },
    {
        "Altitude(m)": 707062.2233992007,
        "Argument of Periapsis(deg)": 0.008872304924320031,
        "Eccentricity": 0.0,
        "Inclination(deg)": 45.0,
        "Latitude(deg)": -16.67944627332277,
        "Longitude(deg)": -172.93439309714003,
        "Mean Anomaly(deg)": -23.743531243014928,
        "RAAN(deg)": 304.9916248034957,
        "Satellite Name": "Constellation 1 1362",
        "Satellite Number": 1362,
        "Semi-Major Axis(m)": 7083131.272910544,
        "Time(s)": 148
    },
    {
        "Altitude(m)": 707049.9162621896,
        "Argument of Periapsis(deg)": 0.008932252930565437,
        "Eccentricity": 0.0,
        "Inclination(deg)": 45.0,
        "Latitude(deg)": -16.63825623819538,
        "Longitude(deg)": -172.89187145378347,
        "Mean Anomaly(deg)": -23.68283010276509,
        "RAAN(deg)": 304.9915682143302,
        "Satellite Name": "Constellation 1 1362",
        "Satellite Number": 1362,
        "Semi-Major Axis(m)": 7083131.272910544,
        "Time(s)": 149
    },
    {
        "Altitude(m)": 707037.6206158889,
        "Argument of Periapsis(deg)": 0.008992200936810843,
        "Eccentricity": 0.0,
        "Inclination(deg)": 45.0,
        "Latitude(deg)": -16.597055476876193,
        "Longitude(deg)": -172.8493696011799,
        "Mean Anomaly(deg)": -23.622128962515102,
        "RAAN(deg)": 304.9915116251646,
        "Satellite Name": "Constellation 1 1362",
        "Satellite Number": 1362,
        "Semi-Major Axis(m)": 7083131.272910544,
        "Time(s)": 150
    },
    {
        "Altitude(m)": 707025.3364984728,
        "Argument of Periapsis(deg)": 0.009052148943056249,
        "Eccentricity": 0.0,
        "Inclination(deg)": 45.0,
        "Latitude(deg)": -16.55584402142665,
        "Longitude(deg)": -172.8068874839611,
        "Mean Anomaly(deg)": -23.56142782226527,
        "RAAN(deg)": 304.991455035999,
        "Satellite Name": "Constellation 1 1362",
        "Satellite Number": 1362,
        "Semi-Major Axis(m)": 7083131.272910544,
        "Time(s)": 151
    }
]